{"fetched_at":"2026-07-10T07:59:09.944Z","source":"https://celestrak.org/NORAD/elements/gp.php?NAME=LEGION&FORMAT=JSON","constellation":"maxar-legion","records":[{"OBJECT_NAME":"LEGION 1","OBJECT_ID":"2024-081A","EPOCH":"2026-07-09T17:22:05.784384","CLASSIFICATION_TYPE":"U","MEAN_MOTION":15.16821177,"ECCENTRICITY":0.0007747,"INCLINATION":97.5012,"RA_OF_ASC_NODE":268.3414,"ARG_OF_PERICENTER":292.5857,"MEAN_ANOMALY":67.4556,"EPHEMERIS_TYPE":0,"NORAD_CAT_ID":59625,"ELEMENT_SET_NO":999,"REV_AT_EPOCH":12095,"BSTAR":0.00011505,"MEAN_MOTION_DOT":0.00002195,"MEAN_MOTION_DDOT":0},{"OBJECT_NAME":"LEGION 2","OBJECT_ID":"2024-081B","EPOCH":"2026-07-09T18:05:44.303136","CLASSIFICATION_TYPE":"U","MEAN_MOTION":15.16800248,"ECCENTRICITY":0.0009935,"INCLINATION":97.5011,"RA_OF_ASC_NODE":268.4683,"ARG_OF_PERICENTER":254.885,"MEAN_ANOMALY":105.1284,"EPHEMERIS_TYPE":0,"NORAD_CAT_ID":59626,"ELEMENT_SET_NO":999,"REV_AT_EPOCH":12096,"BSTAR":0.00013474,"MEAN_MOTION_DOT":0.00002582,"MEAN_MOTION_DDOT":0},{"OBJECT_NAME":"LEGION 3","OBJECT_ID":"2024-146A","EPOCH":"2026-07-09T16:02:20.147136","CLASSIFICATION_TYPE":"U","MEAN_MOTION":15.15633421,"ECCENTRICITY":0.0008682,"INCLINATION":45.0016,"RA_OF_ASC_NODE":270.0128,"ARG_OF_PERICENTER":305.2721,"MEAN_ANOMALY":54.7345,"EPHEMERIS_TYPE":0,"NORAD_CAT_ID":60452,"ELEMENT_SET_NO":999,"REV_AT_EPOCH":10543,"BSTAR":0.0001164,"MEAN_MOTION_DOT":0.00001987,"MEAN_MOTION_DDOT":0},{"OBJECT_NAME":"LEGION 4","OBJECT_ID":"2024-146B","EPOCH":"2026-07-09T17:37:04.759104","CLASSIFICATION_TYPE":"U","MEAN_MOTION":15.1621477,"ECCENTRICITY":0.0011446,"INCLINATION":45.0026,"RA_OF_ASC_NODE":1.528,"ARG_OF_PERICENTER":77.675,"MEAN_ANOMALY":282.5409,"EPHEMERIS_TYPE":0,"NORAD_CAT_ID":60453,"ELEMENT_SET_NO":999,"REV_AT_EPOCH":10429,"BSTAR":0.00017076,"MEAN_MOTION_DOT":0.00003094,"MEAN_MOTION_DDOT":0},{"OBJECT_NAME":"LEGION 5","OBJECT_ID":"2025-025A","EPOCH":"2026-07-09T16:04:04.304928","CLASSIFICATION_TYPE":"U","MEAN_MOTION":15.16051337,"ECCENTRICITY":0.0008572,"INCLINATION":45,"RA_OF_ASC_NODE":180.8503,"ARG_OF_PERICENTER":274.9009,"MEAN_ANOMALY":85.0891,"EPHEMERIS_TYPE":0,"NORAD_CAT_ID":62900,"ELEMENT_SET_NO":999,"REV_AT_EPOCH":7790,"BSTAR":0.00010001,"MEAN_MOTION_DOT":0.00001692,"MEAN_MOTION_DDOT":0},{"OBJECT_NAME":"LEGION 6","OBJECT_ID":"2025-025B","EPOCH":"2026-07-09T04:56:36.556224","CLASSIFICATION_TYPE":"U","MEAN_MOTION":15.1566436,"ECCENTRICITY":0.00107102,"INCLINATION":45.001,"RA_OF_ASC_NODE":92.465,"ARG_OF_PERICENTER":246.165,"MEAN_ANOMALY":113.8107,"EPHEMERIS_TYPE":0,"NORAD_CAT_ID":62901,"ELEMENT_SET_NO":999,"REV_AT_EPOCH":7897,"BSTAR":0.0001535424,"MEAN_MOTION_DOT":0.0000271,"MEAN_MOTION_DDOT":0}]}
